#aV2024  1 12  0  0  0.00000000     288 DD+AD WGS84 FIT  NGA
## 2296 432000.00000000   300.00000000 60321 0.0000000000000
+   31     1  2  3  4  5  6  7  8  9 10 11 12 13 14 15 16 17
+         18 19 20 21 22 23 24 25 26 28 29 30 31 32  0  0  0
+          0  0  0  0  0  0  0  0  0  0  0  0  0  0  0  0  0
+          0  0  0  0  0  0  0  0  0  0  0  0  0  0  0  0  0
+          0  0  0  0  0  0  0  0  0  0  0  0  0  0  0  0  0
++         2  2  2  2  2  2  2  2  2  2  2  2  2  2  2  2  2
++         2  2  2  2  2  2  2  2  2  2  2  2  2  2  0  0  0
++         0  0  0  0  0  0  0  0  0  0  0  0  0  0  0  0  0
++         0  0  0  0  0  0  0  0  0  0  0  0  0  0  0  0  0
++         0  0  0  0  0  0  0  0  0  0  0  0  0  0  0  0  0
%c cc cc ccc ccc cccc cccc cccc cccc ccccc ccccc ccccc ccccc
%c cc cc ccc ccc cccc cccc cccc cccc ccccc ccccc ccccc ccccc
%f  0.0000000  0.000000000  0.00000000000  0.000000000000000
%f  0.0000000  0.000000000  0.00000000000  0.000000000000000
%i    0    0    0    0      0      0      0      0         0
%i    0    0    0    0      0      0      0      0         0
/*      NGA, ST. LOUIS,MO.                                  
/*   EPHEMERIS COMPUTED FROM 2 DAYS OF DATA                 
/*   EPOCHA v9 SMOOTHER                                     
/*   G2296 IERS2010 SATIGS SATAPC                           
*  2024  1 12 21 50  0.00000000
P  1  12940.519019 -20759.226718   9565.495394    165.939646                    
V  1  -1794.819167  12760.298528  29392.038331      0.010264                    
P  2  14636.932486 -15062.399003  16619.798985   -501.802342                    
V  2  -2222.996913  20193.759192  21126.898003      0.055943                    
P  3  21909.293730 -11805.755036  -9257.511194    121.830300                    
V  3  11698.802946   -856.076999  29335.714331      0.260475                    
P  4  11433.862969  -9911.639758 -21816.376218    264.459119                    
V  4  18608.611931  20543.052857    287.620368      0.097739                    
P  5 -25837.202265   5841.043576  -2726.429187   -157.727691                    
V  5   2393.400596  -3268.394407 -31635.917322     -0.014302                    
P  6  -8314.120693 -16242.355903 -19187.998539    446.852190                    
V  6   7975.135033 -23172.519072  16197.896118     -0.131315                    
P  7   4449.066432 -25695.634074   3897.135496    -35.765144                    
V  7   4565.444482  -3307.046530 -31300.903252     -0.093727                    
P  8  17769.267470  -2132.422019  19667.443188   -161.787738                    
V  8  17254.446708  18198.077726 -13139.444537     -0.018781                    
P  9   -425.971411 -18892.155297 -18725.869453     56.847357                    
V  9  17891.687198  15509.686465 -16185.518799      0.121851                    
P 10  10022.065304  12316.406347  21549.034024    -69.084678                    
V 10 -25871.864318   6860.842554   7870.042055     -0.015328                    
P 11 -14251.756194  -4969.017560 -21829.709310   -537.534067                    
V 11   8879.422205 -26304.224305    143.373048     -0.140813                    
P 12 -22560.196806  10615.480275  -9334.290124   -467.242411                    
V 12 -11726.767769   -419.535108  28812.514159     -0.038414                    
P 13 -19589.714644  -8840.732513  15545.020478    615.230056                    
V 13 -10421.064180 -17149.030139 -22379.574210      0.037183                    
P 14  -5727.560743 -14577.486596  21483.648977    296.971365                    
V 14  26571.718879  -6125.467155   2750.244389      0.102609                    
P 15 -17635.890801   4171.506890  18995.319870    116.597613                    
V 15 -19041.518884 -16571.323334 -13483.260929      0.038772                    
P 16  25507.200130   1800.217277  -8341.532372   -385.410107                    
V 16  -9553.356979   3669.195330 -29142.524292      0.077121                    
P 17 -10973.166238 -22456.040212   9192.008472    720.019641                    
V 17   8955.119924   6943.234825  29157.194934     -0.009014                    
P 18  -4384.829253  25647.908367   4829.722190   -530.545148                    
V 18  -4166.570280   5146.457611 -31382.549637     -0.092723                    
P 19 -16842.484979 -20784.286752   -658.050052    425.681990                    
V 19   1369.209696  -1833.404827  31719.728071      0.052591                    
P 20 -21775.932045  -1915.525829 -14907.180412    391.846394                    
V 20  16497.643942  -9960.802235 -22898.015091     -0.019050                    
P 21  15555.686578  -9849.101737  19269.429533    138.602494                    
V 21  -2736.819978  23671.635116  15641.176757     -0.012237                    
P 22 -13072.931990 -12093.769838  20046.956286     49.332681                    
V 22  24116.682212  -4990.541217  13285.989138     -0.065278                    
P 23  -4103.190962  15816.447696  20917.966490    134.145616                    
V 23 -25737.113517   6412.207623 -10088.297461      0.074470                    
P 24 -14858.382760  14136.313785  16244.188817   -412.617566                    
V 24   1281.684758 -21771.690863  20042.897491     -0.072386                    
P 25 -12540.089474  16070.748042 -17215.144581    485.033868                    
V 25 -21139.421766   3605.063409  19409.683902      0.013337                    
P 26  20118.405420   6244.430647 -16530.084251    200.899285                    
V 26 -18946.124461   8533.843386 -19640.463664     -0.035157                    
P 28   7720.316760  18731.907946 -17198.925698    -96.905793                    
V 28  -6930.678558  20733.313109  19491.091383     -0.113086                    
P 29  -2115.910557  18054.441661 -19375.919756   -608.770768                    
V 29 -16575.418675 -18081.234762 -15170.571434      0.005208                    
P 30  -3293.177041 -22914.255538  12902.433885   -446.202641                    
V 30   7472.726482 -14862.519523 -24990.480872      0.046103                    
P 31  12716.348998   9910.370455 -21253.114209   -227.256256                    
V 31  -8634.388881  25172.552105   7039.585373     -0.002416                    
P 32  15116.394595  21207.349713   5947.525326   -604.575328                    
V 32  -6876.459405  -3412.765474  30438.570912     -0.029175                    
EOF
